[{"OBJECT_NAME":"GRUS-1B","OBJECT_ID":"2021-022C","EPOCH":"2026-03-09T23:21:03.699936","MEAN_MOTION":14.98735678,"ECCENTRICITY":0.00144346,"INCLINATION":97.554,"RA_OF_ASC_NODE":315.3658,"ARG_OF_PERICENTER":300.5216,"MEAN_ANOMALY":59.4582,"EPHEMERIS_TYPE":0,"CLASSIFICATION_TYPE":"U","NORAD_CAT_ID":47934,"ELEMENT_SET_NO":999,"REV_AT_EPOCH":27103,"BSTAR":0.00025294791,"MEAN_MOTION_DOT":2.992e-5,"MEAN_MOTION_DDOT":0},{"OBJECT_NAME":"STARLINK-36263","OBJECT_ID":"2025-304L","EPOCH":"2026-03-09T07:05:18.023136","MEAN_MOTION":14.9831908,"ECCENTRICITY":0.00035419,"INCLINATION":70.0012,"RA_OF_ASC_NODE":175.5312,"ARG_OF_PERICENTER":267.9987,"MEAN_ANOMALY":92.0766,"EPHEMERIS_TYPE":0,"CLASSIFICATION_TYPE":"U","NORAD_CAT_ID":67202,"ELEMENT_SET_NO":999,"REV_AT_EPOCH":1382,"BSTAR":0.0019146601,"MEAN_MOTION_DOT":0.00022821,"MEAN_MOTION_DDOT":0}]
